{
  "type": "FeatureCollection",
  "features": [
    {
      "type": "Feature",
      "properties": {
        "norad_id": 34845,
        "name": "COSMOS 2251 DEB",
        "group": "cosmos-2251-debris",
        "lat": -73.98739737702847,
        "lon": 79.08446192061092,
        "alt_km": 737.7539020044087,
        "timestamp": "2025-12-03T10:52:57.851585+00:00",
        "meta_object_name": "COSMOS 2251 DEB",
        "meta_object_id": "1993-036ABP",
        "meta_epoch": "2025-11-28T06:44:43.474272",
        "meta_mean_motion": 14.45815545,
        "meta_eccentricity": 0.00217969,
        "meta_inclination": 74.024,
        "meta_ra_of_asc_node": 175.3373,
        "meta_arg_of_pericenter": 338.6212,
        "meta_mean_anomaly": 21.4033,
        "meta_ephemeris_type": 0,
        "meta_classification_type": "U",
        "meta_norad_cat_id": 34845,
        "meta_element_set_no": 999,
        "meta_rev_at_epoch": 87257,
        "meta_bstar": 0.00025523358,
        "meta_mean_motion_dot": 8.81e-06,
        "meta_mean_motion_ddot": 0,
        "tle_line1": "1 34845U 93036ABP 25332.28105873  .00000881  00000+0  25523-3 0  9990",
        "tle_line2": "2 34845  74.0240 175.3373 0021796 338.6212  21.4033 14.45815545872576"
      },
      "geometry": {
        "type": "Point",
        "coordinates": [
          79.08446192061092,
          -73.98739737702847
        ]
      }
    },
    {
      "type": "Feature",
      "properties": {
        "norad_id": 34846,
        "name": "COSMOS 2251 DEB",
        "group": "cosmos-2251-debris",
        "lat": 13.141336634360794,
        "lon": 95.30656645402667,
        "alt_km": 754.2763242235087,
        "timestamp": "2025-12-03T10:52:57.851596+00:00",
        "meta_object_name": "COSMOS 2251 DEB",
        "meta_object_id": "1993-036ABQ",
        "meta_epoch": "2025-12-03T00:09:43.315776",
        "meta_mean_motion": 14.47104829,
        "meta_eccentricity": 0.0025874,
        "meta_inclination": 74.0308,
        "meta_ra_of_asc_node": 279.9747,
        "meta_arg_of_pericenter": 347.664,
        "meta_mean_anomaly": 12.3882,
        "meta_ephemeris_type": 0,
        "meta_classification_type": "U",
        "meta_norad_cat_id": 34846,
        "meta_element_set_no": 999,
        "meta_rev_at_epoch": 87263,
        "meta_bstar": 0.0013419,
        "meta_mean_motion_dot": 4.888e-05,
        "meta_mean_motion_ddot": 0,
        "tle_line1": "1 34846U 93036ABQ 25337.00675134  .00004888  00000+0  13419-2 0  9999",
        "tle_line2": "2 34846  74.0308 279.9747 0025874 347.6640  12.3882 14.47104829872630"
      },
      "geometry": {
        "type": "Point",
        "coordinates": [
          95.30656645402667,
          13.141336634360794
        ]
      }
    },
    {
      "type": "Feature",
      "properties": {
        "norad_id": 34852,
        "name": "COSMOS 2251 DEB",
        "group": "cosmos-2251-debris",
        "lat": -30.584519201119335,
        "lon": 109.7934832720442,
        "alt_km": 785.2657457320583,
        "timestamp": "2025-12-03T10:52:57.851606+00:00",
        "meta_object_name": "COSMOS 2251 DEB",
        "meta_object_id": "1993-036ABW",
        "meta_epoch": "2025-12-02T05:29:46.536576",
        "meta_mean_motion": 14.36991388,
        "meta_eccentricity": 0.0015746,
        "meta_inclination": 74.0326,
        "meta_ra_of_asc_node": 282.3019,
        "meta_arg_of_pericenter": 28.2884,
        "meta_mean_anomaly": 331.9121,
        "meta_ephemeris_type": 0,
        "meta_classification_type": "U",
        "meta_norad_cat_id": 34852,
        "meta_element_set_no": 999,
        "meta_rev_at_epoch": 87383,
        "meta_bstar": 0.00017468,
        "meta_mean_motion_dot": 4.92e-06,
        "meta_mean_motion_ddot": 0,
        "tle_line1": "1 34852U 93036ABW 25336.22901084  .00000492  00000+0  17468-3 0  9991",
        "tle_line2": "2 34852  74.0326 282.3019 0015746  28.2884 331.9121 14.36991388873837"
      },
      "geometry": {
        "type": "Point",
        "coordinates": [
          109.7934832720442,
          -30.584519201119335
        ]
      }
    },
    {
      "type": "Feature",
      "properties": {
        "norad_id": 34854,
        "name": "COSMOS 2251 DEB",
        "group": "cosmos-2251-debris",
        "lat": -50.80435891936367,
        "lon": 17.345374664479458,
        "alt_km": 621.216654540498,
        "timestamp": "2025-12-03T10:52:57.851617+00:00",
        "meta_object_name": "COSMOS 2251 DEB",
        "meta_object_id": "1993-036ABY",
        "meta_epoch": "2025-12-01T22:02:46.134528",
        "meta_mean_motion": 14.76470003,
        "meta_eccentricity": 0.00662316,
        "meta_inclination": 74.0289,
        "meta_ra_of_asc_node": 179.791,
        "meta_arg_of_pericenter": 293.6475,
        "meta_mean_anomaly": 65.7756,
        "meta_ephemeris_type": 0,
        "meta_classification_type": "U",
        "meta_norad_cat_id": 34854,
        "meta_element_set_no": 999,
        "meta_rev_at_epoch": 71722,
        "meta_bstar": 0.00065989077,
        "meta_mean_motion_dot": 4.729e-05,
        "meta_mean_motion_ddot": 0,
        "tle_line1": "1 34854U 93036ABY 25335.91858952  .00004729  00000+0  65989-3 0  9991",
        "tle_line2": "2 34854  74.0289 179.7910 0066231 293.6475  65.7756 14.76470003717221"
      },
      "geometry": {
        "type": "Point",
        "coordinates": [
          17.345374664479458,
          -50.80435891936367
        ]
      }
    },
    {
      "type": "Feature",
      "properties": {
        "norad_id": 34856,
        "name": "COSMOS 2251 DEB",
        "group": "cosmos-2251-debris",
        "lat": 52.70985089723262,
        "lon": 126.07777720369828,
        "alt_km": 569.5613258735375,
        "timestamp": "2025-12-03T10:52:57.851629+00:00",
        "meta_object_name": "COSMOS 2251 DEB",
        "meta_object_id": "1993-036ACA",
        "meta_epoch": "2025-12-02T11:02:06.604224",
        "meta_mean_motion": 15.05140167,
        "meta_eccentricity": 0.00347835,
        "meta_inclination": 73.9965,
        "meta_ra_of_asc_node": 105.9765,
        "meta_arg_of_pericenter": 243.8774,
        "meta_mean_anomaly": 190.0896,
        "meta_ephemeris_type": 0,
        "meta_classification_type": "U",
        "meta_norad_cat_id": 34856,
        "meta_element_set_no": 999,
        "meta_rev_at_epoch": 88957,
        "meta_bstar": 0.0024540063,
        "meta_mean_motion_dot": 0.00035572,
        "meta_mean_motion_ddot": 0,
        "tle_line1": "1 34856U 93036ACA 25336.45979866  .00035572  00000+0  24540-2 0  9998",
        "tle_line2": "2 34856  73.9965 105.9765 0034783 243.8774 190.0896 15.05140167889570"
      },
      "geometry": {
        "type": "Point",
        "coordinates": [
          126.07777720369828,
          52.70985089723262
        ]
      }
    },
    {
      "type": "Feature",
      "properties": {
        "norad_id": 34857,
        "name": "COSMOS 2251 DEB",
        "group": "cosmos-2251-debris",
        "lat": -9.650897770609832,
        "lon": -52.66659991139231,
        "alt_km": 677.903974825862,
        "timestamp": "2025-12-03T10:52:57.851640+00:00",
        "meta_object_name": "COSMOS 2251 DEB",
        "meta_object_id": "1993-036ACB",
        "meta_epoch": "2025-12-03T04:15:06.733728",
        "meta_mean_motion": 14.58719635,
        "meta_eccentricity": 0.006625,
        "meta_inclination": 74.0143,
        "meta_ra_of_asc_node": 125.0659,
        "meta_arg_of_pericenter": 251.1934,
        "meta_mean_anomaly": 289.1001,
        "meta_ephemeris_type": 0,
        "meta_classification_type": "U",
        "meta_norad_cat_id": 34857,
        "meta_element_set_no": 999,
        "meta_rev_at_epoch": 87761,
        "meta_bstar": 0.0016306,
        "meta_mean_motion_dot": 7.823e-05,
        "meta_mean_motion_ddot": 0,
        "tle_line1": "1 34857U 93036ACB 25337.17716127  .00007823  00000+0  16306-2 0  9997",
        "tle_line2": "2 34857  74.0143 125.0659 0066250 251.1934 289.1001 14.58719635877619"
      },
      "geometry": {
        "type": "Point",
        "coordinates": [
          -52.66659991139231,
          -9.650897770609832
        ]
      }
    },
    {
      "type": "Feature",
      "properties": {
        "norad_id": 34859,
        "name": "COSMOS 2251 DEB",
        "group": "cosmos-2251-debris",
        "lat": 60.76886223658598,
        "lon": 148.1711149661763,
        "alt_km": 526.0111339549512,
        "timestamp": "2025-12-03T10:52:57.851651+00:00",
        "meta_object_name": "COSMOS 2251 DEB",
        "meta_object_id": "1993-036ACD",
        "meta_epoch": "2025-12-03T02:43:55.274016",
        "meta_mean_motion": 15.12200295,
        "meta_eccentricity": 0.0004652,
        "meta_inclination": 74.035,
        "meta_ra_of_asc_node": 359.644,
        "meta_arg_of_pericenter": 317.511,
        "meta_mean_anomaly": 109.1572,
        "meta_ephemeris_type": 0,
        "meta_classification_type": "U",
        "meta_norad_cat_id": 34859,
        "meta_element_set_no": 999,
        "meta_rev_at_epoch": 88213,
        "meta_bstar": 0.0062158,
        "meta_mean_motion_dot": 0.00108986,
        "meta_mean_motion_ddot": 0,
        "tle_line1": "1 34859U 93036ACD 25337.11383419  .00108986  00000+0  62158-2 0  9995",
        "tle_line2": "2 34859  74.0350 359.6440 0004652 317.5110 109.1572 15.12200295882130"
      },
      "geometry": {
        "type": "Point",
        "coordinates": [
          148.1711149661763,
          60.76886223658598
        ]
      }
    }
  ]
}